NORAD_CAT_ID,OBJECT_NAME,OBJECT_TYPE,EPOCH,MEAN_MOTION,ECCENTRICITY,INCLINATION,RA_OF_ASC_NODE,ARG_OF_PERICENTER,MEAN_ANOMALY,BSTAR,MEAN_MOTION_DOT,MEAN_MOTION_DDOT,TLE_LINE0,TLE_LINE1,TLE_LINE2,SEMIMAJOR_AXIS,PERIOD,APOGEE,PERIGEE,DECAYED
53902.0,STARLINK-5021,PAYLOAD,2023-08-26 21:06:27,15.08666073,0.0002216,53.218,110.0016,99.5586,260.5657,0.0021041,0.00033198,0.0,0 STARLINK-5021,1 53902U 22119S   23238.87948699  .00033198  00000-0  21041-2 0  9996,2 53902  53.2180 110.0016 0002216  99.5586 260.5657 15.08666073 52620,6918.412,95.449,541.81,538.744,0.0
53902.0,STARLINK-5021,PAYLOAD,2023-08-27 01:52:36,15.08842884,0.0001443,53.2179,109.109,85.09,275.0257,-2.3946e-05,-6.69e-06,0.0,0 STARLINK-5021,1 53902U 22119S   23239.07819712 -.00000669  00000-0 -23946-4 0  9999,2 53902  53.2179 109.1090 0001443  85.0900 275.0257 15.08842884 52230,6917.872,95.437,540.735,538.738,0.0
53902.0,STARLINK-5021,PAYLOAD,2023-08-27 20:57:13,15.08839336,0.0001547,53.218,105.5404,84.734,275.3829,5.6172e-05,6.06e-06,0.0,0 STARLINK-5021,1 53902U 22119S   23239.87307794  .00000606  00000-0  56172-4 0  9995,2 53902  53.2180 105.5404 0001547  84.7340 275.3829 15.08839336 52775,6917.882,95.438,540.818,538.677,0.0
53902.0,STARLINK-5021,PAYLOAD,2023-08-28 20:48:01,15.08837727,0.000143,53.2178,101.0802,94.5456,265.5699,7.8726e-06,-1.63e-06,0.0,0 STARLINK-5021,1 53902U 22119S   23240.86668070 -.00000163  00000-0  78726-5 0  9992,2 53902  53.2178 101.0802 0001430  94.5456 265.5699 15.08837727 52928,6917.887,95.438,540.742,538.763,0.0
53902.0,STARLINK-5021,PAYLOAD,2023-08-28 23:58:47,15.08838958,0.0001362,53.2176,100.4846,95.173,264.9418,2.1166e-05,4.9e-07,0.0,0 STARLINK-5021,1 53902U 22119S   23240.99915910  .00000049  00000-0  21166-4 0  9991,2 53902  53.2176 100.4846 0001362  95.1730 264.9418 15.08838958 52528,6917.884,95.438,540.691,538.806,0.0
53902.0,STARLINK-5021,PAYLOAD,2023-08-29 20:38:47,15.08843972,0.0001392,53.2178,96.6184,93.8334,266.2817,-4.7005e-06,-3.63e-06,0.0,0 STARLINK-5021,1 53902U 22119S   23241.86027752 -.00000363  00000-0 -47005-5 0  9998,2 53902  53.2178  96.6184 0001392  93.8334 266.2817 15.08843972 53070,6917.868,95.437,540.696,538.77,0.0
53902.0,STARLINK-5021,PAYLOAD,2023-08-30 07:46:29,15.08842114,0.0001349,53.2179,94.5378,99.2894,260.8251,-1.9827e-05,-6.03e-06,0.0,0 STARLINK-5021,1 53902U 22119S   23242.32395757 -.00000603  00000-0 -19827-4 0  9990,2 53902  53.2179  94.5378 0001349  99.2894 260.8251 15.08842114 52726,6917.874,95.437,540.672,538.806,0.0
53902.0,STARLINK-5021,PAYLOAD,2023-08-30 20:29:33,15.0884912,0.0002706,53.2171,92.1643,99.6546,260.4752,0.00055375,8.538e-05,0.0,0 STARLINK-5021,1 53902U 22119S   23242.85385496  .00008538  00000-0  55375-3 0  9997,2 53902  53.2171  92.1643 0002706  99.6546 260.4752 15.08849120 53225,6917.853,95.437,541.589,537.846,0.0
53902.0,STARLINK-5021,PAYLOAD,2023-08-30 23:40:20,15.0882894,0.0001148,53.217,91.5693,96.302,263.8103,0.00033774,5.09e-05,0.0,0 STARLINK-5021,1 53902U 22119S   23242.98635340  .00005090  00000-0  33774-3 0  9996,2 53902  53.2170  91.5693 0001148  96.3020 263.8103 15.08828940 53248,6917.914,95.438,540.573,538.985,0.0
53902.0,STARLINK-5021,PAYLOAD,2023-08-31 23:31:08,15.08844542,0.0001446,53.2166,87.1106,75.9802,284.1351,9.978e-05,1.301e-05,0.0,0 STARLINK-5021,1 53902U 22119S   23243.97995616  .00001301  00000-0  99780-4 0  9992,2 53902  53.2166  87.1106 0001446  75.9802 284.1351 15.08844542 52971,6917.867,95.437,540.732,538.731,0.0
53902.0,STARLINK-5021,PAYLOAD,2023-09-01 20:11:11,15.08765073,7.53e-05,53.211,83.2435,116.7308,243.3761,0.00094297,0.00014721,0.0,0 STARLINK-5021,1 53902U 22119S   23244.84110619  .00014721  00000-0  94297-3 0  9998,2 53902  53.2110  83.2435 0000753 116.7308 243.3761 15.08765073 53106,6918.109,95.442,540.495,539.453,0.0
53902.0,STARLINK-5021,PAYLOAD,2023-09-01 23:21:56,15.08805552,0.0003391,53.2154,82.6466,92.187,267.951,0.00059048,9.113e-05,0.0,0 STARLINK-5021,1 53902U 22119S   23244.97356504  .00009113  00000-0  59048-3 0  9991,2 53902  53.2154  82.6466 0003391  92.1870 267.9510 15.08805552 53126,6917.986,95.44,542.197,537.505,0.0
53902.0,STARLINK-5021,PAYLOAD,2023-09-02 05:43:30,15.08783748,0.0003821,53.2129,81.4565,90.3854,269.7576,0.00071664,0.00011119,0.0,0 STARLINK-5021,1 53902U 22119S   23245.23854553  .00011119  00000-0  71664-3 0  9995,2 53902  53.2129  81.4565 0003821  90.3854 269.7576 15.08783748 53163,6918.052,95.441,542.561,537.274,0.0
53902.0,STARLINK-5021,PAYLOAD,2023-09-02 16:51:10,15.08831594,0.0001426,53.219,79.3727,91.4335,268.682,6.9499e-06,-1.77e-06,0.0,0 STARLINK-5021,1 53902U 22119S   23245.70220670 -.00000177  00000-0  69499-5 0  9992,2 53902  53.2190  79.3727 0001426  91.4335 268.6820 15.08831594 53233,6917.906,95.438,540.758,538.785,0.0
53902.0,STARLINK-5021,PAYLOAD,2023-09-02 20:01:56,15.08832126,0.0001104,53.2174,78.7808,90.8434,269.2685,2.5067e-05,1.11e-06,0.0,0 STARLINK-5021,1 53902U 22119S   23245.83468580  .00000111  00000-0  25067-4 0  9999,2 53902  53.2174  78.7808 0001104  90.8434 269.2685 15.08832126 53670,6917.904,95.438,540.533,539.006,0.0
53902.0,STARLINK-5021,PAYLOAD,2023-09-03 11:55:48,15.08836721,0.0001139,53.2179,75.8066,88.4742,271.638,5.5323e-05,5.93e-06,0.0,0 STARLINK-5021,1 53902U 22119S   23246.49708467  .00000593  00000-0  55323-4 0  9995,2 53902  53.2179  75.8066 0001139  88.4742 271.6380 15.08836721 53777,6917.89,95.438,540.543,538.967,0.0
53902.0,STARLINK-5021,PAYLOAD,2023-09-04 11:46:35,15.08832464,0.0001424,53.216,71.3441,90.8243,269.2913,4.8057e-05,4.77e-06,0.0,0 STARLINK-5021,1 53902U 22119S   23247.49069016  .00000477  00000-0  48057-4 0  9993,2 53902  53.2160  71.3441 0001424  90.8243 269.2913 15.08832464 53927,6917.903,95.438,540.754,538.783,0.0
53902.0,STARLINK-5021,PAYLOAD,2023-09-05 11:37:22,15.08841036,0.0001433,53.2171,66.8838,87.1538,272.9618,3.4776e-05,2.66e-06,0.0,0 STARLINK-5021,1 53902U 22119S   23248.48428779  .00000266  00000-0  34776-4 0  9997,2 53902  53.2171  66.8838 0001433  87.1538 272.9618 15.08841036 54079,6917.877,95.437,540.734,538.751,0.0
53902.0,STARLINK-5021,PAYLOAD,2023-09-05 17:58:54,15.08840451,0.0001305,53.2173,65.6939,85.9453,274.1688,9.2043e-05,1.177e-05,0.0,0 STARLINK-5021,1 53902U 22119S   23248.74924603  .00001177  00000-0  92043-4 0  9996,2 53902  53.2173  65.6939 0001305  85.9453 274.1688 15.08840451 53698,6917.879,95.438,540.647,538.841,0.0
53902.0,STARLINK-5021,PAYLOAD,2023-09-06 11:28:09,15.08835757,0.000133,53.2177,62.4239,88.7244,271.39,6.5931e-05,7.61e-06,0.0,0 STARLINK-5021,1 53902U 22119S   23249.47789042  .00000761  00000-0  65931-4 0  9997,2 53902  53.2177  62.4239 0001330  88.7244 271.3900 15.08835757 53809,6917.893,95.438,540.678,538.838,0.0
53902.0,STARLINK-5021,PAYLOAD,2023-09-06 21:00:28,15.08839908,0.000133,53.2181,60.6402,86.5811,273.5333,4.9242e-05,4.96e-06,0.0,0 STARLINK-5021,1 53902U 22119S   23249.87532893  .00000496  00000-0  49242-4 0  9993,2 53902  53.2181  60.6402 0001330  86.5811 273.5333 15.08839908 54281,6917.881,95.438,540.666,538.826,0.0
53902.0,STARLINK-5021,PAYLOAD,2023-09-07 11:18:56,15.0884078,0.0001299,53.2184,57.9642,86.7385,273.3756,3.5207e-05,2.72e-06,0.0,0 STARLINK-5021,1 53902U 22119S   23250.47148833  .00000272  00000-0  35207-4 0  9996,2 53902  53.2184  57.9642 0001299  86.7385 273.3756 15.08840780 54378,6917.878,95.438,540.642,538.844,0.0
53902.0,STARLINK-5021,PAYLOAD,2023-09-07 20:51:15,15.08846604,0.0001424,53.2175,56.1789,84.3738,275.7416,5.9646e-05,6.62e-06,0.0,0 STARLINK-5021,1 53902U 22119S   23250.86892369  .00000662  00000-0  59646-4 0  9995,2 53902  53.2175  56.1789 0001424  84.3738 275.7416 15.08846604 54434,6917.86,95.437,540.71,538.74,0.0
53902.0,STARLINK-5021,PAYLOAD,2023-09-08 17:31:15,15.08843552,0.000122,53.2189,52.3125,102.9191,257.1938,9.4526e-06,-1.37e-06,0.0,0 STARLINK-5021,1 53902U 22119S   23251.73004629 -.00000137  00000-0  94526-5 0  9991,2 53902  53.2189  52.3125 0001220 102.9191 257.1938 15.08843552 54145,6917.87,95.437,540.579,538.891,0.0
53902.0,STARLINK-5021,PAYLOAD,2023-09-08 20:42:02,15.08844632,0.0001246,53.2189,51.7176,105.4368,254.6762,1.1332e-05,-1.07e-06,0.0,0 STARLINK-5021,1 53902U 22119S   23251.86252528 -.00000107  00000-0  11332-4 0  9998,2 53902  53.2189  51.7176 0001246 105.4368 254.6762 15.08844632 54581,6917.866,95.437,540.593,538.869,0.0
53902.0,STARLINK-5021,PAYLOAD,2023-09-09 09:25:07,15.08833032,0.0001256,53.2185,49.3379,105.5431,254.57,8.6035e-05,1.081e-05,0.0,0 STARLINK-5021,1 53902U 22119S   23252.39245126  .00001081  00000-0  86035-4 0  9996,2 53902  53.2185  49.3379 0001256 105.5431 254.5700 15.08833032 54244,6917.902,95.438,540.636,538.898,0.0
53902.0,STARLINK-5021,PAYLOAD,2023-09-09 14:11:16,15.08857759,0.0001353,53.2189,48.4469,91.1723,268.9424,-0.00021246,-3.669e-05,0.0,0 STARLINK-5021,1 53902U 22119S   23252.59116336 -.00003669  00000-0 -21246-3 0  9996,2 53902  53.2189  48.4469 0001353  91.1723 268.9424 15.08857759 54693,6917.826,95.436,540.627,538.755,0.0
53902.0,STARLINK-5021,PAYLOAD,2023-09-09 17:22:02,15.08847706,0.0001306,53.2189,47.8527,87.7714,272.3428,-2.3666e-06,-3.26e-06,0.0,0 STARLINK-5021,1 53902U 22119S   23252.72364422 -.00000326  00000-0 -23666-5 0  9999,2 53902  53.2189  47.8527 0001306  87.7714 272.3428 15.08847706 54290,6917.857,95.437,540.625,538.818,0.0
53902.0,STARLINK-5021,PAYLOAD,2023-09-10 10:51:18,15.08835315,0.0001311,53.2194,44.5825,88.7044,271.4098,2.3513e-05,8.6e-07,0.0,0 STARLINK-5021,1 53902U 22119S   23253.45229191  .00000086  00000-0  23513-4 0  9994,2 53902  53.2194  44.5825 0001311  88.7044 271.4098 15.08835315 54403,6917.895,95.438,540.667,538.853,0.0
53902.0,STARLINK-5021,PAYLOAD,2023-09-10 14:02:04,15.08839196,0.0001279,53.2194,43.9882,92.8187,267.2952,3.5964e-05,2.85e-06,0.0,0 STARLINK-5021,1 53902U 22119S   23253.58476917  .00000285  00000-0  35964-4 0  9992,2 53902  53.2194  43.9882 0001279  92.8187 267.2952 15.08839196 54847,6917.883,95.438,540.633,538.863,0.0
